[
    {
        "Altitude(m)": 607911.0185822329,
        "Argument of Periapsis(deg)": 0.0,
        "Eccentricity": 0.0,
        "Inclination(deg)": 60.0,
        "Latitude(deg)": -14.292998040987861,
        "Longitude(deg)": -31.55732687892662,
        "Mean Anomaly(deg)": -163.6364,
        "RAAN(deg)": 240.0,
        "Satellite Name": "Test1 1068",
        "Satellite Number": 1068,
        "Semi-Major Axis(m)": 6980739.136638005,
        "Time(s)": 0
    },
    {
        "Altitude(m)": 608060.2524071245,
        "Argument of Periapsis(deg)": 0.00010418945913296404,
        "Eccentricity": 0.0,
        "Inclination(deg)": 60.0,
        "Latitude(deg)": -14.826658927223859,
        "Longitude(deg)": -31.268716369131624,
        "Mean Anomaly(deg)": -163.01629385453822,
        "RAAN(deg)": 239.99957995086024,
        "Satellite Name": "Test1 1068",
        "Satellite Number": 1068,
        "Semi-Major Axis(m)": 6980739.136638005,
        "Time(s)": 10
    }
]